CCSDS_OMM_VERS = 2.0
CREATION_DATE  = 
ORIGINATOR     = 

OBJECT_NAME    = STARLINK-36766
OBJECT_ID      = 2026-042A
CENTER_NAME    = EARTH
REF_FRAME      = TEME
TIME_SYSTEM    = UTC
MEAN_ELEMENT_THEORY = SGP/SGP4

EPOCH          = 2026-03-26T13:49:11.813952
MEAN_MOTION    = 15.80941796
ECCENTRICITY   = .0001769
INCLINATION    = 53.1583
RA_OF_ASC_NODE = 110.1514
ARG_OF_PERICENTER = 86.6130
MEAN_ANOMALY   = 273.5095

EPHEMERIS_TYPE = 0
CLASSIFICATION_TYPE = U
NORAD_CAT_ID   = 68069
ELEMENT_SET_NO = 999
REV_AT_EPOCH   = 475
BSTAR          = .20473E-2
MEAN_MOTION_DOT = .425253E-2
MEAN_MOTION_DDOT = 0

CCSDS_OMM_VERS = 2.0
CREATION_DATE  = 
ORIGINATOR     = 

OBJECT_NAME    = STARLINK-36823
OBJECT_ID      = 2026-042B
CENTER_NAME    = EARTH
REF_FRAME      = TEME
TIME_SYSTEM    = UTC
MEAN_ELEMENT_THEORY = SGP/SGP4

EPOCH          = 2026-03-26T13:48:06.573312
MEAN_MOTION    = 15.80931413
ECCENTRICITY   = .0001555
INCLINATION    = 53.1581
RA_OF_ASC_NODE = 110.1458
ARG_OF_PERICENTER = 129.2949
MEAN_ANOMALY   = 230.8212

EPHEMERIS_TYPE = 0
CLASSIFICATION_TYPE = U
NORAD_CAT_ID   = 68070
ELEMENT_SET_NO = 999
REV_AT_EPOCH   = 475
BSTAR          = .10814E-2
MEAN_MOTION_DOT = .218812E-2
MEAN_MOTION_DDOT = 0

CCSDS_OMM_VERS = 2.0
CREATION_DATE  = 
ORIGINATOR     = 

OBJECT_NAME    = STARLINK-36970
OBJECT_ID      = 2026-042C
CENTER_NAME    = EARTH
REF_FRAME      = TEME
TIME_SYSTEM    = UTC
MEAN_ELEMENT_THEORY = SGP/SGP4

EPOCH          = 2026-03-26T20:00:03.000384
MEAN_MOTION    = 15.75194468
ECCENTRICITY   = .0000913
INCLINATION    = 53.1596
RA_OF_ASC_NODE = 108.9020
ARG_OF_PERICENTER = 113.8792
MEAN_ANOMALY   = 251.6187

EPHEMERIS_TYPE = 0
CLASSIFICATION_TYPE = U
NORAD_CAT_ID   = 68071
ELEMENT_SET_NO = 999
REV_AT_EPOCH   = 480
BSTAR          = .41533E-3
MEAN_MOTION_DOT = .6338E-3
MEAN_MOTION_DDOT = 0

CCSDS_OMM_VERS = 2.0
CREATION_DATE  = 
ORIGINATOR     = 

OBJECT_NAME    = STARLINK-36972
OBJECT_ID      = 2026-042D
CENTER_NAME    = EARTH
REF_FRAME      = TEME
TIME_SYSTEM    = UTC
MEAN_ELEMENT_THEORY = SGP/SGP4

EPOCH          = 2026-03-26T12:15:59.738976
MEAN_MOTION    = 15.80910420
ECCENTRICITY   = .0001272
INCLINATION    = 53.1578
RA_OF_ASC_NODE = 110.4580
ARG_OF_PERICENTER = 114.6421
MEAN_ANOMALY   = 245.4734

EPHEMERIS_TYPE = 0
CLASSIFICATION_TYPE = U
NORAD_CAT_ID   = 68072
ELEMENT_SET_NO = 999
REV_AT_EPOCH   = 474
BSTAR          = .95745E-3
MEAN_MOTION_DOT = .192883E-2
MEAN_MOTION_DDOT = 0

CCSDS_OMM_VERS = 2.0
CREATION_DATE  = 
ORIGINATOR     = 

OBJECT_NAME    = STARLINK-37074
OBJECT_ID      = 2026-042E
CENTER_NAME    = EARTH
REF_FRAME      = TEME
TIME_SYSTEM    = UTC
MEAN_ELEMENT_THEORY = SGP/SGP4

EPOCH          = 2026-03-26T10:42:47.618208
MEAN_MOTION    = 15.80907804
ECCENTRICITY   = .0001392
INCLINATION    = 53.1577
RA_OF_ASC_NODE = 110.7650
ARG_OF_PERICENTER = 169.1847
MEAN_ANOMALY   = 190.9206

EPHEMERIS_TYPE = 0
CLASSIFICATION_TYPE = U
NORAD_CAT_ID   = 68073
ELEMENT_SET_NO = 999
REV_AT_EPOCH   = 473
BSTAR          = .67862E-3
MEAN_MOTION_DOT = .135578E-2
MEAN_MOTION_DDOT = 0

CCSDS_OMM_VERS = 2.0
CREATION_DATE  = 
ORIGINATOR     = 

OBJECT_NAME    = STARLINK-37045
OBJECT_ID      = 2026-042F
CENTER_NAME    = EARTH
REF_FRAME      = TEME
TIME_SYSTEM    = UTC
MEAN_ELEMENT_THEORY = SGP/SGP4

EPOCH          = 2026-03-26T16:00:00.999936
MEAN_MOTION    = 15.75220787
ECCENTRICITY   = .0001101
INCLINATION    = 53.1592
RA_OF_ASC_NODE = 109.8903
ARG_OF_PERICENTER = 83.1931
MEAN_ANOMALY   = 339.2027

EPHEMERIS_TYPE = 0
CLASSIFICATION_TYPE = U
NORAD_CAT_ID   = 68074
ELEMENT_SET_NO = 999
REV_AT_EPOCH   = 478
BSTAR          = .29849E-3
MEAN_MOTION_DOT = .45324E-3
MEAN_MOTION_DDOT = 0

CCSDS_OMM_VERS = 2.0
CREATION_DATE  = 
ORIGINATOR     = 

OBJECT_NAME    = STARLINK-37026
OBJECT_ID      = 2026-042G
CENTER_NAME    = EARTH
REF_FRAME      = TEME
TIME_SYSTEM    = UTC
MEAN_ELEMENT_THEORY = SGP/SGP4

EPOCH          = 2026-03-26T11:23:40.096032
MEAN_MOTION    = 15.75303366
ECCENTRICITY   = .000144
INCLINATION    = 53.1573
RA_OF_ASC_NODE = 110.9521
ARG_OF_PERICENTER = 90.9098
MEAN_ANOMALY   = 269.2087

EPHEMERIS_TYPE = 0
CLASSIFICATION_TYPE = U
NORAD_CAT_ID   = 68075
ELEMENT_SET_NO = 999
REV_AT_EPOCH   = 473
BSTAR          = .87409E-3
MEAN_MOTION_DOT = .135903E-2
MEAN_MOTION_DDOT = 0

CCSDS_OMM_VERS = 2.0
CREATION_DATE  = 
ORIGINATOR     = 

OBJECT_NAME    = STARLINK-37023
OBJECT_ID      = 2026-042H
CENTER_NAME    = EARTH
REF_FRAME      = TEME
TIME_SYSTEM    = UTC
MEAN_ELEMENT_THEORY = SGP/SGP4

EPOCH          = 2026-03-26T12:47:32.725824
MEAN_MOTION    = 15.75282714
ECCENTRICITY   = .0001196
INCLINATION    = 53.1579
RA_OF_ASC_NODE = 110.6014
ARG_OF_PERICENTER = 102.1038
MEAN_ANOMALY   = 258.0116

EPHEMERIS_TYPE = 0
CLASSIFICATION_TYPE = U
NORAD_CAT_ID   = 68076
ELEMENT_SET_NO = 999
REV_AT_EPOCH   = 474
BSTAR          = .1117E-2
MEAN_MOTION_DOT = .174495E-2
MEAN_MOTION_DDOT = 0

CCSDS_OMM_VERS = 2.0
CREATION_DATE  = 
ORIGINATOR     = 

OBJECT_NAME    = STARLINK-37036
OBJECT_ID      = 2026-042J
CENTER_NAME    = EARTH
REF_FRAME      = TEME
TIME_SYSTEM    = UTC
MEAN_ELEMENT_THEORY = SGP/SGP4

EPOCH          = 2026-03-26T12:48:01.192896
MEAN_MOTION    = 15.75283745
ECCENTRICITY   = .0000953
INCLINATION    = 53.1576
RA_OF_ASC_NODE = 110.6037
ARG_OF_PERICENTER = 81.4325
MEAN_ANOMALY   = 278.6803

EPHEMERIS_TYPE = 0
CLASSIFICATION_TYPE = U
NORAD_CAT_ID   = 68077
ELEMENT_SET_NO = 999
REV_AT_EPOCH   = 474
BSTAR          = .11471E-2
MEAN_MOTION_DOT = .179318E-2
MEAN_MOTION_DDOT = 0

CCSDS_OMM_VERS = 2.0
CREATION_DATE  = 
ORIGINATOR     = 

OBJECT_NAME    = STARLINK-36973
OBJECT_ID      = 2026-042K
CENTER_NAME    = EARTH
REF_FRAME      = TEME
TIME_SYSTEM    = UTC
MEAN_ELEMENT_THEORY = SGP/SGP4

EPOCH          = 2026-03-26T20:00:03.000384
MEAN_MOTION    = 15.75209112
ECCENTRICITY   = .0001177
INCLINATION    = 53.1589
RA_OF_ASC_NODE = 108.7960
ARG_OF_PERICENTER = 90.2091
MEAN_ANOMALY   = 326.7911

EPHEMERIS_TYPE = 0
CLASSIFICATION_TYPE = U
NORAD_CAT_ID   = 68078
ELEMENT_SET_NO = 999
REV_AT_EPOCH   = 480
BSTAR          = .25199E-3
MEAN_MOTION_DOT = .38111E-3
MEAN_MOTION_DDOT = 0

CCSDS_OMM_VERS = 2.0
CREATION_DATE  = 
ORIGINATOR     = 

OBJECT_NAME    = STARLINK-37063
OBJECT_ID      = 2026-042L
CENTER_NAME    = EARTH
REF_FRAME      = TEME
TIME_SYSTEM    = UTC
MEAN_ELEMENT_THEORY = SGP/SGP4

EPOCH          = 2026-03-26T10:37:24.006144
MEAN_MOTION    = 15.80910337
ECCENTRICITY   = .0001639
INCLINATION    = 53.1575
RA_OF_ASC_NODE = 110.7393
ARG_OF_PERICENTER = 74.3737
MEAN_ANOMALY   = 285.7466

EPHEMERIS_TYPE = 0
CLASSIFICATION_TYPE = U
NORAD_CAT_ID   = 68079
ELEMENT_SET_NO = 999
REV_AT_EPOCH   = 473
BSTAR          = .11372E-2
MEAN_MOTION_DOT = .230234E-2
MEAN_MOTION_DDOT = 0

CCSDS_OMM_VERS = 2.0
CREATION_DATE  = 
ORIGINATOR     = 

OBJECT_NAME    = STARLINK-37051
OBJECT_ID      = 2026-042M
CENTER_NAME    = EARTH
REF_FRAME      = TEME
TIME_SYSTEM    = UTC
MEAN_ELEMENT_THEORY = SGP/SGP4

EPOCH          = 2026-03-26T20:00:03.000384
MEAN_MOTION    = 15.75211763
ECCENTRICITY   = .0001028
INCLINATION    = 53.1595
RA_OF_ASC_NODE = 108.8481
ARG_OF_PERICENTER = 118.0746
MEAN_ANOMALY   = 273.1738

EPHEMERIS_TYPE = 0
CLASSIFICATION_TYPE = U
NORAD_CAT_ID   = 68080
ELEMENT_SET_NO = 999
REV_AT_EPOCH   = 480
BSTAR          = .23926E-3
MEAN_MOTION_DOT = .36149E-3
MEAN_MOTION_DDOT = 0

